OBJECT_NAME,OBJECT_ID,EPOCH,MEAN_MOTION,ECCENTRICITY,INCLINATION,RA_OF_ASC_NODE,ARG_OF_PERICENTER,MEAN_ANOMALY,EPHEMERIS_TYPE,CLASSIFICATION_TYPE,NORAD_CAT_ID,ELEMENT_SET_NO,REV_AT_EPOCH,BSTAR,MEAN_MOTION_DOT,MEAN_MOTION_DDOT
ATLAS CENTAUR 2,1963-047A,2026-07-06T05:19:24.372768,14.12553441,.05457386,30.3521,252.9455,45.3796,319.0018,0,U,694,999,14839,.13245434E-3,.1171E-4,0
THOR AGENA D R/B,1964-002A,2026-07-06T16:37:35.268384,14.34073699,.003175,99.1153,207.4768,272.1656,87.5892,0,U,733,999,25535,.74573E-4,.16E-5,0
SL-3 R/B,1964-053B,2026-07-06T16:42:09.064800,14.61436413,.0080527,65.0779,342.3099,254.9970,104.2207,0,U,877,999,28418,.57532E-4,.172E-5,0
SL-8 R/B,1967-045B,2026-07-06T21:02:45.855168,14.45692345,.0063009,74.0111,125.4848,104.4709,256.3451,0,U,2802,999,10624,.79182E-4,.259E-5,0
SL-8 R/B,1968-040B,2026-07-06T19:22:49.748736,15.03913220,.0025462,74.0303,70.1622,219.8538,140.0782,0,U,3230,999,10791,.17451E-3,.2379E-4,0
OAO 2,1968-110A,2026-07-06T10:32:45.560544,14.47359695,.00048787,34.9944,322.1830,65.9764,294.1437,0,U,3597,999,3631,.58033622E-4,.196E-5,0
ISIS 1,1969-009A,2026-07-06T09:34:47.303040,11.30435845,.1706929,88.4444,142.2894,209.4136,139.9304,0,U,3669,999,36194,.57161E-4,.86E-6,0
SERT 2,1970-009A,2026-07-06T16:41:30.526944,13.58740585,.000421,99.2840,124.3617,212.7901,212.1378,0,U,4327,999,79605,.5557E-4,-.1E-7,0
SL-3 R/B,1971-028B,2026-07-06T19:18:52.077888,15.71774842,.0014407,81.2313,263.7598,211.2286,148.8119,0,U,5118,999,732,.34108E-3,.44523E-3,0
ASTEX 1,1971-089A,2026-07-06T17:29:06.908352,14.50867301,.0017301,92.7001,190.1490,48.5661,311.7028,0,U,5560,999,87956,.10065E-3,.397E-5,0
SL-8 R/B,1971-119B,2026-07-06T19:44:54.893184,14.39661927,.054315,73.8887,312.6511,254.6723,99.3809,0,U,5730,999,67262,.23556E-3,.4586E-4,0
OAO 3 (COPERNICUS),1972-065A,2026-07-06T10:43:48.569952,14.60071663,.00060696,35.0069,340.6633,47.4087,346.6063,0,U,6153,999,86356,.69188481E-4,.316E-5,0
ATLAS CENTAUR R/B,1972-065B,2026-07-06T09:29:53.491200,14.77957141,.00342615,35.0028,329.9300,289.4958,70.2043,0,U,6155,999,85883,.12907956E-3,.931E-5,0
SL-8 R/B,1975-112B,2026-07-06T10:43:55.272864,14.38254893,.0016511,74.0597,160.4411,224.7440,135.2384,0,U,8459,999,64894,.75043E-4,.202E-5,0
SL-3 R/B,1977-057B,2026-07-06T19:15:37.590624,15.48288100,.0006373,97.5852,5.2995,199.8906,160.2097,0,U,10114,999,68674,.16311E-3,.8516E-4,0
SEASAT 1,1978-064A,2026-07-06T17:52:41.753280,14.46256690,.0001275,108.0185,15.3452,247.3776,112.7235,0,U,10967,999,52372,.92619E-4,.194E-5,0
SL-14 R/B,1979-011B,2026-07-06T16:35:36.451968,14.92032857,.0016562,82.5247,343.6427,25.1574,335.0449,0,U,11267,999,54652,.50185E-4,.536E-5,0
SL-8 R/B,1979-089B,2026-07-06T14:59:42.899712,14.42412554,.0015652,74.0674,230.8752,8.0048,352.1355,0,U,11574,999,45325,.6728E-4,.196E-5,0
SL-14 R/B,1980-005B,2026-07-06T13:57:26.434944,14.91044914,.0017043,82.5132,194.4424,123.7898,236.4947,0,U,11672,999,49420,.47275E-4,.495E-5,0
SL-8 R/B,1981-003B,2026-07-06T17:01:39.694080,15.14855054,.025038,82.9376,179.6262,123.1560,239.3967,0,U,12139,999,33267,.35371E-3,.14821E-3,0
SL-3 R/B,1981-046B,2026-07-06T21:15:25.009632,15.44645070,.0016353,81.2306,146.3321,328.5682,31.4583,0,U,12465,999,45681,.21236E-3,.9971E-4,0
SL-3 R/B,1981-103B,2026-07-06T18:32:11.169600,15.22446130,.0011569,81.1576,73.6216,242.3556,117.6502,0,U,12904,999,99134,.15694E-3,.3661E-4,0
SL-3 R/B,1982-013B,2026-07-06T19:16:57.146016,15.22920407,.0022635,81.1735,21.0286,135.4907,224.8149,0,U,13068,999,42247,.15126E-3,.3599E-4,0
SL-3 R/B,1982-039B,2026-07-06T20:10:05.795040,15.10664641,.0027626,81.1497,78.3814,287.5859,72.2349,0,U,13154,999,39962,.16917E-3,.2846E-4,0
SL-3 R/B,1982-079B,2026-07-06T18:56:44.071008,15.25960041,.0024867,81.1451,52.2977,120.7197,239.6492,0,U,13403,999,39585,.14794E-3,.3859E-4,0
SL-14 R/B,1982-092B,2026-07-06T16:50:08.672064,14.86760931,.0018731,82.5669,30.0408,266.0990,139.1351,0,U,13553,999,34661,.38926E-4,.372E-5,0
SL-3 R/B,1983-010B,2026-07-06T15:01:55.839072,15.49750948,.0014019,81.0999,216.0143,355.1418,4.9690,0,U,13819,999,37634,.20868E-3,.1167E-3,0
SL-3 R/B,1983-075B,2026-07-06T19:31:33.618720,15.40865698,.0021478,97.6107,197.1240,158.0084,202.2088,0,U,14208,999,34848,.18777E-3,.7678E-4,0
COSMOS 1536,1984-013A,2026-07-06T20:17:00.456288,15.25277623,.0013193,82.5454,349.2613,218.7848,141.2444,0,U,14699,999,29077,.19808E-3,.5027E-4,0
SL-14 R/B,1984-027B,2026-07-06T21:01:49.791936,14.86075136,.0016538,82.5426,133.2540,301.7310,58.2294,0,U,14820,999,26533,.43633E-4,.407E-5,0
SL-8 R/B,1985-006B,2026-07-06T16:57:20.264256,14.37842219,.0019229,74.0452,42.1440,286.3795,137.9040,0,U,15483,999,17113,.54305E-4,.138E-5,0
