ATLAS CENTAUR 2         
1 00694U 63047A   26187.22180987  .00001171  00000+0  13245-3 0  9997
2 00694  30.3521 252.9455 0545738  45.3796 319.0018 14.12553441148390
THOR AGENA D R/B        
1 00733U 64002A   26187.69276931  .00000160  00000+0  74573-4 0  9998
2 00733  99.1153 207.4768 0031750 272.1656  87.5892 14.34073699255357
SL-3 R/B                
1 00877U 64053B   26187.69593825  .00000172  00000+0  57532-4 0  9996
2 00877  65.0779 342.3099 0080527 254.9970 104.2207 14.61436413284188
SL-8 R/B                
1 02802U 67045B   26187.87691962  .00000259  00000+0  79182-4 0  9992
2 02802  74.0111 125.4848 0063009 104.4709 256.3451 14.45692345106245
SL-8 R/B                
1 03230U 68040B   26187.80752024  .00002379  00000+0  17451-3 0  9999
2 03230  74.0303  70.1622 0025462 219.8538 140.0782 15.03913220107916
OAO 2                   
1 03597U 68110A   26187.43941621  .00000196  00000+0  58034-4 0  9993
2 03597  34.9944 322.1830 0004878  65.9764 294.1437 14.47359695 36318
ISIS 1                  
1 03669U 69009A   26187.39915860  .00000086  00000+0  57161-4 0  9990
2 03669  88.4444 142.2894 1706929 209.4136 139.9304 11.30435845361943
SERT 2                  
1 04327U 70009A   26187.69549221 -.00000001  00000+0  55570-4 0  9991
2 04327  99.2840 124.3617 0004210 212.7901 212.1378 13.58740585796050
SL-3 R/B                
1 05118U 71028B   26187.80476942  .00044523  00000+0  34108-3 0  9993
2 05118  81.2313 263.7598 0014407 211.2286 148.8119 15.71774842  7323
ASTEX 1                 
1 05560U 71089A   26187.72855218  .00000397  00000+0  10065-3 0  9996
2 05560  92.7001 190.1490 0017301  48.5661 311.7028 14.50867301879565
SL-8 R/B                
1 05730U 71119B   26187.82285756  .00004586  00000+0  23556-3 0  9997
2 05730  73.8887 312.6511 0543150 254.6723  99.3809 14.39661927672623
OAO 3 (COPERNICUS)      
1 06153U 72065A   26187.44708993  .00000316  00000+0  69188-4 0  9998
2 06153  35.0069 340.6633 0006069  47.4087 346.6063 14.60071663863566
ATLAS CENTAUR R/B       
1 06155U 72065B   26187.39575800  .00000931  00000+0  12908-3 0  9993
2 06155  35.0028 329.9300 0034261 289.4958  70.2043 14.77957141858838
SL-8 R/B                
1 08459U 75112B   26187.44716751  .00000202  00000+0  75043-4 0  9997
2 08459  74.0597 160.4411 0016511 224.7440 135.2384 14.38254893648948
SL-3 R/B                
1 10114U 77057B   26187.80251841  .00008516  00000+0  16311-3 0  9990
2 10114  97.5852   5.2995 0006373 199.8906 160.2097 15.48288100686749
SEASAT 1                
1 10967U 78064A   26187.74492770  .00000194  00000+0  92619-4 0  9996
2 10967 108.0185  15.3452 0001275 247.3776 112.7235 14.46256690523722
SL-14 R/B               
1 11267U 79011B   26187.69139412  .00000536  00000+0  50185-4 0  9990
2 11267  82.5247 343.6427 0016562  25.1574 335.0449 14.92032857546521
SL-8 R/B                
1 11574U 79089B   26187.62480208  .00000196  00000+0  67280-4 0  9997
2 11574  74.0674 230.8752 0015652   8.0048 352.1355 14.42412554453259
SL-14 R/B               
1 11672U 80005B   26187.58155596  .00000495  00000+0  47275-4 0  9994
2 11672  82.5132 194.4424 0017043 123.7898 236.4947 14.91044914494202
SL-8 R/B                
1 12139U 81003B   26187.70948720  .00014821  00000+0  35371-3 0  9996
2 12139  82.9376 179.6262 0250380 123.1560 239.3967 15.14855054332670
SL-3 R/B                
1 12465U 81046B   26187.88570613  .00009971  00000+0  21236-3 0  9991
2 12465  81.2306 146.3321 0016353 328.5682  31.4583 15.44645070456816
SL-3 R/B                
1 12904U 81103B   26187.77235150  .00003661  00000+0  15694-3 0  9996
2 12904  81.1576  73.6216 0011569 242.3556 117.6502 15.22446130991346
SL-3 R/B                
1 13068U 82013B   26187.80343919  .00003599  00000+0  15126-3 0  9996
2 13068  81.1735  21.0286 0022635 135.4907 224.8149 15.22920407422472
SL-3 R/B                
1 13154U 82039B   26187.84034485  .00002846  00000+0  16917-3 0  9992
2 13154  81.1497  78.3814 0027626 287.5859  72.2349 15.10664641399624
SL-3 R/B                
1 13403U 82079B   26187.78939897  .00003859  00000+0  14794-3 0  9993
2 13403  81.1451  52.2977 0024867 120.7197 239.6492 15.25960041395857
SL-14 R/B               
1 13553U 82092B   26187.70148926  .00000372  00000+0  38926-4 0  9992
2 13553  82.5669  30.0408 0018731 266.0990 139.1351 14.86760931346610
SL-3 R/B                
1 13819U 83010B   26187.62634073  .00011670  00000+0  20868-3 0  9990
2 13819  81.0999 216.0143 0014019 355.1418   4.9690 15.49750948376342
SL-3 R/B                
1 14208U 83075B   26187.81358355  .00007678  00000+0  18777-3 0  9990
2 14208  97.6107 197.1240 0021478 158.0084 202.2088 15.40865698348480
COSMOS 1536             
1 14699U 84013A   26187.84514417  .00005027  00000+0  19808-3 0  9995
2 14699  82.5454 349.2613 0013193 218.7848 141.2444 15.25277623290777
SL-14 R/B               
1 14820U 84027B   26187.87627074  .00000407  00000+0  43633-4 0  9994
2 14820  82.5426 133.2540 0016538 301.7310  58.2294 14.86075136265330
SL-8 R/B                
1 15483U 85006B   26187.70648454  .00000138  00000+0  54305-4 0  9994
2 15483  74.0452  42.1440 0019229 286.3795 137.9040 14.37842219171131
